[{"OBJECT_NAME":"STARLINK-31273","OBJECT_ID":"2024-017W","EPOCH":"2026-03-09T16:35:14.996256","MEAN_MOTION":15.30189947,"ECCENTRICITY":0.00013753,"INCLINATION":53.1615,"RA_OF_ASC_NODE":204.5084,"ARG_OF_PERICENTER":74.9705,"MEAN_ANOMALY":285.1448,"EPHEMERIS_TYPE":0,"CLASSIFICATION_TYPE":"U","NORAD_CAT_ID":58846,"ELEMENT_SET_NO":999,"REV_AT_EPOCH":12005,"BSTAR":5.210544e-6,"MEAN_MOTION_DOT":-2.05e-6,"MEAN_MOTION_DDOT":0},{"OBJECT_NAME":"OBJECT L","OBJECT_ID":"2024-024L","EPOCH":"2026-03-09T22:36:05.522976","MEAN_MOTION":15.29373491,"ECCENTRICITY":0.00073185,"INCLINATION":97.3169,"RA_OF_ASC_NODE":137.7038,"ARG_OF_PERICENTER":167.6369,"MEAN_ANOMALY":192.5052,"EPHEMERIS_TYPE":0,"CLASSIFICATION_TYPE":"U","NORAD_CAT_ID":58927,"ELEMENT_SET_NO":999,"REV_AT_EPOCH":9318,"BSTAR":0.00043092344,"MEAN_MOTION_DOT":0.00012217,"MEAN_MOTION_DDOT":0}]
